[
    {
        "Altitude(m)": 624792.7618567449,
        "Argument of Periapsis(deg)": 0.0,
        "Eccentricity": 0.0,
        "Inclination(deg)": 60.0,
        "Latitude(deg)": -59.147056602347554,
        "Longitude(deg)": 169.02623070465907,
        "Mean Anomaly(deg)": 261.8182,
        "RAAN(deg)": 15.0,
        "Satellite Name": "Test1 82",
        "Satellite Number": 82,
        "Semi-Major Axis(m)": 6980739.136638005,
        "Time(s)": 0
    },
    {
        "Altitude(m)": 624842.1545886907,
        "Argument of Periapsis(deg)": 0.00010418945913296404,
        "Eccentricity": 0.0,
        "Inclination(deg)": 60.0,
        "Latitude(deg)": -59.289142231500485,
        "Longitude(deg)": 170.1557328078894,
        "Mean Anomaly(deg)": 262.43830614546187,
        "RAAN(deg)": 14.999579950860259,
        "Satellite Name": "Test1 82",
        "Satellite Number": 82,
        "Semi-Major Axis(m)": 6980739.136638005,
        "Time(s)": 10
    }
]